start=new Date('2021-10-26T00:00:00.000Z').valueOf();
sats=[{"EPOCH":"2021-10-25T03:42:01.052640","CENTER_NAME":"EARTH","RA_OF_ASC_NODE":"163.7566","OBJECT_ID":"2020-038AU","OBJECT_TYPE":"PAYLOAD","NORAD_CAT_ID":"45772","MEAN_ANOMALY":"293.9238","INCLINATION":"53.0547","TLE_LINE1":"1 45772U 20038AU  21298.15417885  .00001203  00000-0  99676-4 0  9996","CLASSIFICATION_TYPE":"U","LAUNCH_DATE":"2020-06-13","MEAN_MOTION_DDOT":"0.0000000000000","TIME_SYSTEM":"UTC","REF_FRAME":"TEME","PERIAPSIS":"546.054","ECCENTRICITY":"0.00016900","PERIOD":"95.592","MEAN_MOTION":"15.06396615","GP_ID":"188142621","BSTAR":"0.00009967600000","REV_AT_EPOCH":"7612","FILE":"3183453","OBJECT_NAME":"STARLINK-1470","SEMIMAJOR_AXIS":"6925.359","TLE_LINE2":"2 45772  53.0547 163.7566 0001690  66.1928 293.9238 15.06396615 76127","COUNTRY_CODE":"US","DECAY_DATE":null,"SITE":"AFETR","APOAPSIS":"548.394","EPHEMERIS_TYPE":"0","ARG_OF_PERICENTER":"66.1928","RCS_SIZE":"LARGE","MEAN_ELEMENT_THEORY":"SGP4","MEAN_MOTION_DOT":"0.00001203","ELEMENT_SET_NO":"999"},{"ELEMENT_SET_NO":"999","RCS_SIZE":"LARGE","MEAN_ELEMENT_THEORY":"SGP4","MEAN_MOTION_DOT":"-0.00000690","ARG_OF_PERICENTER":"78.5291","COUNTRY_CODE":"US","TLE_LINE2":"2 45773  53.0543 162.8871 0001908  78.5291 281.5912 15.06394630 77112","SEMIMAJOR_AXIS":"6925.365","OBJECT_NAME":"STARLINK-1482","FILE":"3183234","APOAPSIS":"548.551","EPHEMERIS_TYPE":"0","SITE":"AFETR","DECAY_DATE":null,"PERIAPSIS":"545.909","REF_FRAME":"TEME","LAUNCH_DATE":"2020-06-13","TIME_SYSTEM":"UTC","MEAN_MOTION_DDOT":"0.0000000000000","CLASSIFICATION_TYPE":"U","TLE_LINE1":"1 45773U 20038AV  21298.34583575 -.00000690  00000-0 -27398-4 0  9991","INCLINATION":"53.0543","NORAD_CAT_ID":"45773","OBJECT_TYPE":"PAYLOAD","MEAN_ANOMALY":"281.5912","REV_AT_EPOCH":"7711","BSTAR":"-0.00002739800000","GP_ID":"188117950","MEAN_MOTION":"15.06394630","PERIOD":"95.592","ECCENTRICITY":"0.00019080","EPOCH":"2021-10-25T08:18:00.208800","OBJECT_ID":"2020-038AV","RA_OF_ASC_NODE":"162.8871","CENTER_NAME":"EARTH"},{"SEMIMAJOR_AXIS":"6925.327","OBJECT_NAME":"STARLINK-1485","COUNTRY_CODE":"US","TLE_LINE2":"2 45774  53.0526 163.9152 0001599  79.6731 280.4438 15.06407055 76111","FILE":"3183453","APOAPSIS":"548.299","EPHEMERIS_TYPE":"0","DECAY_DATE":null,"SITE":"AFETR","ELEMENT_SET_NO":"999","ARG_OF_PERICENTER":"79.6731","MEAN_MOTION_DOT":"-0.00000508","RCS_SIZE":"LARGE","MEAN_ELEMENT_THEORY":"SGP4","EPOCH":"2021-10-25T02:48:55.589184","OBJECT_ID":"2020-038AW","RA_OF_ASC_NODE":"163.9152","CENTER_NAME":"EARTH","TIME_SYSTEM":"UTC","LAUNCH_DATE":"2020-06-13","MEAN_MOTION_DDOT":"0.0000000000000","CLASSIFICATION_TYPE":"U","PERIAPSIS":"546.085","REF_FRAME":"TEME","MEAN_ANOMALY":"280.4438","OBJECT_TYPE":"PAYLOAD","NORAD_CAT_ID":"45774","TLE_LINE1":"1 45774U 20038AW  21298.11731006 -.00000508  00000-0 -15228-4 0  9998","INCLINATION":"53.0526","BSTAR":"-0.00001522800000","GP_ID":"188141619","REV_AT_EPOCH":"7611","ECCENTRICITY":"0.00015990","PERIOD":"95.592","MEAN_MOTION":"15.06407055"},{"BSTAR":"-0.00001678000000","GP_ID":"188142371","REV_AT_EPOCH":"7612","ECCENTRICITY":"0.00018990","PERIOD":"95.592","MEAN_MOTION":"15.06395433","LAUNCH_DATE":"2020-06-13","MEAN_MOTION_DDOT":"0.0000000000000","TIME_SYSTEM":"UTC","CLASSIFICATION_TYPE":"U","PERIAPSIS":"545.912","REF_FRAME":"TEME","MEAN_ANOMALY":"279.4569","OBJECT_TYPE":"PAYLOAD","NORAD_CAT_ID":"45775","TLE_LINE1":"1 45775U 20038AX  21298.12099561 -.00000532  00000-0 -16780-4 0  9994","INCLINATION":"53.0540","OBJECT_ID":"2020-038AX","RA_OF_ASC_NODE":"163.8983","CENTER_NAME":"EARTH","EPOCH":"2021-10-25T02:54:14.020704","ELEMENT_SET_NO":"999","ARG_OF_PERICENTER":"80.6634","RCS_SIZE":"LARGE","MEAN_ELEMENT_THEORY":"SGP4","MEAN_MOTION_DOT":"-0.00000532","EPHEMERIS_TYPE":"0","APOAPSIS":"548.543","DECAY_DATE":null,"SITE":"AFETR","SEMIMAJOR_AXIS":"6925.363","OBJECT_NAME":"STARLINK-1488","COUNTRY_CODE":"US","TLE_LINE2":"2 45775  53.0540 163.8983 0001899  80.6634 279.4569 15.06395433 76126","FILE":"3183453"},{"NORAD_CAT_ID":"45776","OBJECT_TYPE":"PAYLOAD","MEAN_ANOMALY":"286.2724","TLE_LINE1":"1 45776U 20038AY  21297.99569539  .00001725  00000-0  13471-3 0  9992","INCLINATION":"53.0530","TIME_SYSTEM":"UTC","LAUNCH_DATE":"2020-06-13","MEAN_MOTION_DDOT":"0.0000000000000","CLASSIFICATION_TYPE":"U","PERIAPSIS":"546.062","REF_FRAME":"TEME","ECCENTRICITY":"0.00016710","PERIOD":"95.592","MEAN_MOTION":"15.06398063","BSTAR":"0.00013471000000","GP_ID":"188143121","REV_AT_EPOCH":"7610","EPOCH":"2021-10-24T23:53:48.081696","CENTER_NAME":"EARTH","RA_OF_ASC_NODE":"164.4645","OBJECT_ID":"2020-038AY","ARG_OF_PERICENTER":"73.8449","RCS_SIZE":"LARGE","MEAN_MOTION_DOT":"0.00001725","MEAN_ELEMENT_THEORY":"SGP4","ELEMENT_SET_NO":"999","FILE":"3183453","SEMIMAJOR_AXIS":"6925.354","OBJECT_NAME":"STARLINK-1489","COUNTRY_CODE":"US","TLE_LINE2":"2 45776  53.0530 164.4645 0001671  73.8449 286.2724 15.06398063 76103","DECAY_DATE":null,"SITE":"AFETR","APOAPSIS":"548.377","EPHEMERIS_TYPE":"0"},{"FILE":"3183453","COUNTRY_CODE":"US","TLE_LINE2":"2 45777  53.0529 163.8850 0001876  73.7535 286.3661 15.06405180 76127","SEMIMAJOR_AXIS":"6925.333","OBJECT_NAME":"STARLINK-1490","SITE":"AFETR","DECAY_DATE":null,"EPHEMERIS_TYPE":"0","APOAPSIS":"548.497","RCS_SIZE":"LARGE","MEAN_MOTION_DOT":"0.00002574","MEAN_ELEMENT_THEORY":"SGP4","ARG_OF_PERICENTER":"73.7535","ELEMENT_SET_NO":"999","EPOCH":"2021-10-25T02:59:33.205632","CENTER_NAME":"EARTH","RA_OF_ASC_NODE":"163.8850","OBJECT_ID":"2020-038AZ","TLE_LINE1":"1 45777U 20038AZ  21298.12468988  .00002574  00000-0  19159-3 0  9997","INCLINATION":"53.0529","OBJECT_TYPE":"PAYLOAD","MEAN_ANOMALY":"286.3661","NORAD_CAT_ID":"45777","PERIAPSIS":"545.898","REF_FRAME":"TEME","LAUNCH_DATE":"2020-06-13","MEAN_MOTION_DDOT":"0.0000000000000","TIME_SYSTEM":"UTC","CLASSIFICATION_TYPE":"U","MEAN_MOTION":"15.06405180","PERIOD":"95.592","ECCENTRICITY":"0.00018760","REV_AT_EPOCH":"7612","BSTAR":"0.00019159000000","GP_ID":"188141869"},{"CLASSIFICATION_TYPE":"U","MEAN_MOTION_DDOT":"0.0000000000000","LAUNCH_DATE":"2020-06-13","TIME_SYSTEM":"UTC","REF_FRAME":"TEME","PERIAPSIS":"546.211","OBJECT_TYPE":"PAYLOAD","MEAN_ANOMALY":"277.4454","NORAD_CAT_ID":"45778","INCLINATION":"53.0530","TLE_LINE1":"1 45778U 20038BA  21298.03989809 -.00001016  00000-0 -49352-4 0  9999","GP_ID":"188142119","BSTAR":"-0.00004935200000","REV_AT_EPOCH":"7609","ECCENTRICITY":"0.00014650","MEAN_MOTION":"15.06396097","PERIOD":"95.592","EPOCH":"2021-10-25T00:57:27.194976","RA_OF_ASC_NODE":"164.2677","OBJECT_ID":"2020-038BA","CENTER_NAME":"EARTH","ELEMENT_SET_NO":"999","ARG_OF_PERICENTER":"82.6702","RCS_SIZE":"LARGE","MEAN_MOTION_DOT":"-0.00001016","MEAN_ELEMENT_THEORY":"SGP4","OBJECT_NAME":"STARLINK-1491","SEMIMAJOR_AXIS":"6925.361","TLE_LINE2":"2 45778  53.0530 164.2677 0001465  82.6702 277.4454 15.06396097 76094","COUNTRY_CODE":"US","FILE":"3183453","EPHEMERIS_TYPE":"0","APOAPSIS":"548.240","DECAY_DATE":null,"SITE":"AFETR"},{"ELEMENT_SET_NO":"999","RCS_SIZE":"LARGE","MEAN_MOTION_DOT":"0.00001631","MEAN_ELEMENT_THEORY":"SGP4","ARG_OF_PERICENTER":"82.5842","APOAPSIS":"548.354","EPHEMERIS_TYPE":"0","SITE":"AFETR","DECAY_DATE":null,"TLE_LINE2":"2 45779  53.0544 163.9906 0001670  82.5842 277.5337 15.06405148 76104","COUNTRY_CODE":"US","OBJECT_NAME":"STARLINK-1492","SEMIMAJOR_AXIS":"6925.333","FILE":"3183453","REV_AT_EPOCH":"7610","GP_ID":"188142871","BSTAR":"0.00012837000000","PERIOD":"95.592","MEAN_MOTION":"15.06405148","ECCENTRICITY":"0.00016700","REF_FRAME":"TEME","PERIAPSIS":"546.041","CLASSIFICATION_TYPE":"U","LAUNCH_DATE":"2020-06-13","TIME_SYSTEM":"UTC","MEAN_MOTION_DDOT":"0.0000000000000","INCLINATION":"53.0544","TLE_LINE1":"1 45779U 20038BB  21298.10256706  .00001631  00000-0  12837-3 0  9999","MEAN_ANOMALY":"277.5337","OBJECT_TYPE":"PAYLOAD","NORAD_CAT_ID":"45779","OBJECT_ID":"2020-038BB","RA_OF_ASC_NODE":"163.9906","CENTER_NAME":"EARTH","EPOCH":"2021-10-25T02:27:41.793984"},{"CLASSIFICATION_TYPE":"U","TIME_SYSTEM":"UTC","LAUNCH_DATE":"2020-06-13","MEAN_MOTION_DDOT":"0.0000000000000","REF_FRAME":"TEME","PERIAPSIS":"546.072","MEAN_ANOMALY":"285.4006","OBJECT_TYPE":"PAYLOAD","NORAD_CAT_ID":"45780","INCLINATION":"53.0541","TLE_LINE1":"1 45780U 20038BC  21298.11364776  .00001058  00000-0  89916-4 0  9995","GP_ID":"188142622","BSTAR":"0.00008991600000","REV_AT_EPOCH":"7610","ECCENTRICITY":"0.00016670","PERIOD":"95.592","MEAN_MOTION":"15.06395881","EPOCH":"2021-10-25T02:43:39.166464","OBJECT_ID":"2020-038BC","RA_OF_ASC_NODE":"163.9380","CENTER_NAME":"EARTH","ELEMENT_SET_NO":"999","ARG_OF_PERICENTER":"74.7167","RCS_SIZE":"LARGE","MEAN_MOTION_DOT":"0.00001058","MEAN_ELEMENT_THEORY":"SGP4","OBJECT_NAME":"STARLINK-1496","SEMIMAJOR_AXIS":"6925.361","TLE_LINE2":"2 45780  53.0541 163.9380 0001667  74.7167 285.4006 15.06395881 76101","COUNTRY_CODE":"US","FILE":"3183453","APOAPSIS":"548.381","EPHEMERIS_TYPE":"0","DECAY_DATE":null,"SITE":"AFETR"},{"ELEMENT_SET_NO":"999","ARG_OF_PERICENTER":"78.5454","RCS_SIZE":"LARGE","MEAN_MOTION_DOT":"-0.00000580","MEAN_ELEMENT_THEORY":"SGP4","OBJECT_NAME":"STARLINK-1497","SEMIMAJOR_AXIS":"6925.370","TLE_LINE2":"2 45781  53.0536 162.9295 0001869  78.5454 281.5745 15.06392998 77075","COUNTRY_CODE":"US","FILE":"3183238","APOAPSIS":"548.529","EPHEMERIS_TYPE":"0","DECAY_DATE":null,"SITE":"AFETR","CLASSIFICATION_TYPE":"U","TIME_SYSTEM":"UTC","LAUNCH_DATE":"2020-06-13","MEAN_MOTION_DDOT":"0.0000000000000","REF_FRAME":"TEME","PERIAPSIS":"545.941","OBJECT_TYPE":"PAYLOAD","MEAN_ANOMALY":"281.5745","NORAD_CAT_ID":"45781","INCLINATION":"53.0536","TLE_LINE1":"1 45781U 20038BD  21298.33847327 -.00000580  00000-0 -20038-4 0  9999","GP_ID":"188117621","BSTAR":"-0.00002003800000","REV_AT_EPOCH":"7707","ECCENTRICITY":"0.00018690","MEAN_MOTION":"15.06392998","PERIOD":"95.593","EPOCH":"2021-10-25T08:07:24.090528","OBJECT_ID":"2020-038BD","RA_OF_ASC_NODE":"162.9295","CENTER_NAME":"EARTH"}];
